{
"type": "FeatureCollection",
"name": "AGUASCALIENTES",
"crs": { "type": "name", "properties": { "name": "urn:ogc:def:crs:EPSG::6372" } },
"features": [
{"type":"Feature","properties":{"CVE_ENT":"01","NOM_ENT":"Aguascalientes","CVE_CAP":10001,"NOM_CAP":"Aguascalientes","AREA":555867.384311,"PERIMETER":423.00598319199997,"COV_":0,"COV_ID":1},"geometry":{"type":"Polygon","coordinates":[[[2514208.498599778395146,1112307.423961214488372],[2514271.259999779984355,1111559.023727910360321],[2514552.584499776829034,1111428.018627909012139],[2514263.37639978248626,1111450.673427911708131],[2514276.601299786940217,1108987.286827962845564],[2513993.897499781101942,1108025.252527987817302],[2511174.29969976330176,1106544.000828017247841],[2510776.800699769053608,1107413.799728001235053],[2510815.49929976882413,1107983.000427991617471],[2509571.999399758409709,1108240.999727986054495],[2508979.500599758233875,1108844.299627966247499],[2509304.000099763274193,1107912.300027995370328],[2509892.499899761285633,1107560.399427997414023],[2510267.500299761071801,1107659.599327997304499],[2510457.085899764671922,1107278.399628013605252],[2510704.876499765086919,1105082.842828059336171],[2510504.977299764752388,1104537.995328065939248],[2511266.668199771083891,1103719.151028084103018],[2511738.44029977498576,1101699.182928134687245],[2512152.987799774389714,1102307.697228130185977],[2511862.160199769772589,1102427.557828118558973],[2512368.980999773833901,1102942.761128103127703],[2513086.543999779969454,1103231.971328108338639],[2513612.916199774015695,1103081.468228103825822],[2513843.474099781364202,1103342.43722809990868],[2514738.401099783368409,1102862.643528100801632],[2515918.277699791826308,1102976.209728109650314],[2516929.16249978961423,1102713.264328110497445],[2516654.506499794777483,1098920.225428197067231],[2512314.81209977157414,1099225.035228194668889],[2497947.885199706070125,1093974.378928314661607],[2497861.273999695200473,1092721.897828346816823],[2496048.784049697220325,1092945.968478344846517],[2496027.3102996959351,1091009.769928378751501],[2495774.617599691264331,1091032.262628382770345],[2495705.799599688034505,1089626.499728414462879],[2494328.999499684665352,1088887.599778438685462],[2494561.000499684363604,1088554.899428449571133],[2494034.52719967905432,1087291.652428475441411],[2493443.601299684029073,1086836.410028480924666],[2492594.77974967751652,1085175.248728518839926],[2491451.650699672754854,1085661.976928515359759],[2490268.000499664340168,1084630.887628537369892],[2491130.686499661300331,1083480.351128560956568],[2489496.317999667022377,1082796.142928580520675],[2489265.863499659579247,1081686.773828607052565],[2488068.888099649455398,1080994.024928622879088],[2488279.278499648906291,1080562.27862863522023],[2488102.391399651765823,1080042.114328641211614],[2487555.379899655468762,1080087.567428640089929],[2487070.012099651619792,1078906.523428671294823],[2486793.190699646715075,1079012.13642866932787],[2486589.298899645451456,1078627.999128683237359],[2485962.999799637123942,1078331.299628687556833],[2485369.00179964164272,1076666.071028722682968],[2484832.800299642141908,1076710.899728722637519],[2484054.799899634905159,1076079.500528739299625],[2482846.499699632637203,1076351.600028725806624],[2482864.000399623531848,1076739.099528721068054],[2482349.000699626281857,1076848.599728720495477],[2481681.999799619428813,1074773.000428772298619],[2477936.74279960244894,1075512.311228754930198],[2477939.003999602980912,1074607.151528776623309],[2477494.557399607729167,1074257.736028779298067],[2477548.614899602718651,1073625.184928790433332],[2476684.773999589495361,1071432.638928843429312],[2475524.477999596856534,1070798.437828862573951],[2474155.2831995873712,1071147.036528861848637],[2471651.788299568463117,1071022.679328863508999],[2471198.467399572022259,1071758.918728840537369],[2471219.118099574465305,1072176.413828837918118],[2468691.261399557348341,1072429.177328821504489],[2468826.640699559357017,1071097.406528858700767],[2469575.924599559511989,1070930.399428865173832],[2468045.698799555655569,1068016.795728932600468],[2466925.133299551904202,1068401.184728921158239],[2466441.941599546931684,1067540.000328945927322],[2462208.021199527662247,1069807.374928888631985],[2461936.999799521639943,1070671.900628869188949],[2460334.694199520163238,1070835.559728858061135],[2458029.016699503175914,1071662.333728838479146],[2458329.415199507959187,1072334.509128824342042],[2457426.00109950825572,1072471.000128822866827],[2456229.182599496096373,1073019.500128811458126],[2454535.748599492013454,1073207.976128812413663],[2453534.500399489887059,1074152.00082878745161],[2453254.798899485729635,1074048.899028786923736],[2453404.799999482929707,1073758.500028801849112],[2452518.093799481634051,1073857.774328788975254],[2453199.300199483055621,1074209.900428785476834],[2453178.500199484173208,1074513.999628770863637],[2453440.799799485597759,1074697.899428773438558],[2452957.499299487099051,1075930.899628744227812],[2451773.498899471014738,1075914.399328742874786],[2451010.999699477106333,1075590.998928751563653],[2450934.820499475579709,1076377.91672873776406],[2444159.000399444252253,1079764.60002865223214],[2444312.158899443224072,1080091.913428643252701],[2443492.637499444186687,1080426.998928630026057],[2443129.601699431892484,1080875.456428627483547],[2441593.930699420161545,1081095.273128625238314],[2440831.154299420770258,1080844.295428631594405],[2438623.299399416428059,1081047.599428621586412],[2438577.300099413841963,1082252.299528594594449],[2438121.299999410752207,1082340.900828588521108],[2437593.799399408977479,1081824.000028603011742],[2436380.300499397329986,1082335.399928596802056],[2434804.000499395653605,1083630.000228564953431],[2433767.499899386893958,1083033.599128581117839],[2433009.299599378369749,1083426.799828565213829],[2432117.300399377476424,1083096.100128572201356],[2431155.79989937832579,1083284.300228574778885],[2430137.300999365281314,1082090.600828605005518],[2428912.000599374063313,1082015.300028599798679],[2428740.299299367703497,1081372.000028617680073],[2428221.800099363084882,1080815.099228628678247],[2428323.500799366738647,1079410.300428657559678],[2426495.79989935643971,1079565.798928651958704],[2426335.299599345773458,1080006.600428650388494],[2425906.000799347180873,1079428.099528656341136],[2425657.000899347942322,1078408.299528687261045],[2424089.169499343261123,1077981.600528701208532],[2423649.233399339951575,1078577.865528682945296],[2423392.553199336398393,1078378.745528688654304],[2420513.640499326400459,1080448.039928637444973],[2420149.782299328129739,1080093.642328653484583],[2419760.623499319888651,1080677.739928628085181],[2419891.163749326951802,1080985.904178627301008],[2419177.724099318031222,1081317.955928619485348],[2418452.107999313622713,1082350.655828605405986],[2417049.524799317121506,1083347.386028576875106],[2415926.725399300921708,1083630.250928568188101],[2415497.96189930010587,1084399.56662854924798],[2415607.123499303590506,1084952.166928532300517],[2414881.943899290636182,1085905.643328504171222],[2414469.979599297046661,1087029.139328484656289],[2413324.329399289563298,1087177.08632848947309],[2413344.214449292980134,1087862.983178472612053],[2412959.266399289015681,1087339.27142848377116],[2412199.039699289947748,1087241.298628489254043],[2412538.170999284368008,1088394.741828450933099],[2412367.355199283920228,1088659.880128439050168],[2412808.776599291246384,1089428.768228425877169],[2412840.743899288121611,1089808.953028412070125],[2412530.824599287472665,1090107.816828413167968],[2412841.855399289168417,1091022.707328388467431],[2411737.377999281976372,1091009.12622838979587],[2411073.694299282506108,1092147.97872837097384],[2410421.939399273600429,1092440.983928355155513],[2410119.87359927687794,1092987.664628343423828],[2410233.195299272891134,1093574.512828334001824],[2411209.461199280340225,1094376.970228323247284],[2411313.852499273139983,1095210.800028291763738],[2411604.761299278121442,1095598.152028286131099],[2411511.809199274051934,1096192.35002827597782],[2412007.561899273190647,1096575.144728258019313],[2411917.464699276722968,1097020.051928247790784],[2412223.167299282737076,1097331.142528243595734],[2412697.031199282966554,1099100.824328204616904],[2413300.800199290271848,1099719.508628188865259],[2413007.702199285849929,1100054.746628186665475],[2413205.867699289228767,1100171.340428186114877],[2413279.507199293468148,1101220.440028151264414],[2413842.418699296656996,1102682.998228117357939],[2414308.192499295342714,1102790.977428106823936],[2415397.204399303998798,1104463.573528078850359],[2417705.745699311606586,1109782.540027950890362],[2418694.2704993118532,1111104.284227922093123],[2419536.427399312146008,1111287.339027917012572],[2419647.905099316965789,1112436.894427882973105],[2420262.157799317035824,1112752.253927877405658],[2420476.42749932454899,1113304.490127858240157],[2421020.213499329518527,1113497.083127866731957],[2421153.783599325455725,1113733.492827855516225],[2420870.073999327141792,1113913.768627851270139],[2421845.938599331770092,1114425.113127841148525],[2422657.787399325985461,1116290.467027792939916],[2422332.214999337214977,1116849.928927786648273],[2422394.229199326597154,1117438.046127768000588],[2425189.117599341552705,1119058.761727739823982],[2427058.313899357337505,1119642.18872770993039],[2427169.597499349154532,1119967.6534277072642],[2429079.687899359501898,1121027.973627685802057],[2429162.862099357880652,1122882.726727640721947],[2429856.830599366687238,1123597.514827626524493],[2429583.209599365480244,1124479.605627601034939],[2430035.14979936927557,1124826.142727591330186],[2429965.108699365518987,1125360.893427584785968],[2430288.070699363481253,1125262.783827591920272],[2430796.932299374602735,1125561.440627579577267],[2431308.829399373847991,1126859.857527550309896],[2430689.96939937537536,1127843.885327524505556],[2430652.316699368413538,1128623.649727498413995],[2430772.778199371416122,1128886.794327506097034],[2431386.811199369840324,1128880.826127507723868],[2431596.545399376191199,1129210.6286274951417],[2431337.368699373211712,1130653.033027461031452],[2431766.54579936992377,1130661.113927459111437],[2432180.322899372782558,1130305.558027463965118],[2433154.153399380855262,1130547.355727465357631],[2432777.485099383629858,1130751.368427457520738],[2433752.07469938416034,1131774.688627440948039],[2433976.939799389801919,1133631.651427396340296],[2434431.826899384148419,1134165.773927377304062],[2431291.438799374271184,1136346.209127323469147],[2431445.818199372384697,1141431.374027210986242],[2445971.663899450562894,1141263.742227210663259],[2448064.935699454043061,1141577.144427202176303],[2448618.991999454330653,1142727.140327180968598],[2449866.426799456588924,1142636.181427181465551],[2449924.675799462944269,1142848.054427167633548],[2451804.85379947675392,1143260.574727160856128],[2452109.041599469259381,1143570.369127159938216],[2452231.563599481247365,1144699.074727133847773],[2452474.157499480526894,1144575.439327139407396],[2452787.825799476820976,1144852.557827126700431],[2452753.853699471335858,1145741.385427114088088],[2452029.286599473562092,1145813.037427105708048],[2451713.558399471919984,1146240.029927092371508],[2451980.078199466690421,1147960.524027054663748],[2452286.472599475178868,1147773.728127059526742],[2453781.82469947822392,1147981.632827056804672],[2455702.268299494404346,1148563.127827043412253],[2460259.174299519509077,1149286.280827031005174],[2461225.024149522185326,1148924.304777034791186],[2463198.116049531847239,1151571.010076973121613],[2462827.642349529545754,1151990.045576960546896],[2467080.019799553323537,1151956.259126964025199],[2467121.593199545983225,1155234.218126884428784],[2468047.750399550423026,1157713.591726835118607],[2468075.694499551318586,1159486.737226783996448],[2469458.300099561922252,1159778.330426770728081],[2470292.122699559666216,1155406.639826881932095],[2470552.24839957151562,1154982.973726889817044],[2470772.933399565052241,1155097.533826895756647],[2471134.393299564253539,1154731.503026893129572],[2471939.332699570804834,1154787.992226898204535],[2472252.52019957639277,1154503.269126902567223],[2472033.094299579504877,1154175.516126906499267],[2472612.367499574553221,1153931.433226923691109],[2472927.040999577846378,1153121.065726938424632],[2473270.753699587192386,1153053.10222693439573],[2473284.502899574581534,1152729.197826945688576],[2473814.233499576803297,1152263.776226953370497],[2473852.59039958473295,1151821.034926966298372],[2474019.146899582352489,1151973.769626958528534],[2474359.556299585383385,1151797.344926964491606],[2474331.069799584336579,1151095.952126980293542],[2473882.208299584221095,1150878.025126984575763],[2474059.870899581816047,1150395.907927001360804],[2476628.107199596706778,1150412.131227002013475],[2477119.479699598625302,1150042.943227005191147],[2478281.891699600033462,1150191.091327009024099],[2478281.006599607877433,1149063.969727022340521],[2481826.446599623188376,1149055.253227032953873],[2481481.872799622826278,1147730.31562705617398],[2484645.144099635537714,1147371.651827069697902],[2484291.80779963452369,1141119.015627215150744],[2489073.307999655138701,1140558.967927224934101],[2488947.742799653671682,1140268.797227237839252],[2489209.69029966276139,1140055.158427231479436],[2490679.047699666582048,1141201.369727213867009],[2490817.62439966481179,1140958.020327220670879],[2492248.115399678237736,1142838.006927177542821],[2494184.67999968258664,1142161.303827187977731],[2494095.019299686420709,1141743.816227192990482],[2494293.917599685490131,1141651.054927202640101],[2494012.559899681713432,1141469.263527205679566],[2494749.947599682025611,1141199.996927212225273],[2495542.496499692555517,1141498.16392720490694],[2495660.126699693500996,1141838.701027200790122],[2496179.602399688679725,1142054.665927196852863],[2496741.064599691424519,1140944.574427217943594],[2496936.605299695860595,1140954.826577217318118],[2497129.442699699196965,1139816.529027245473117],[2496948.523599694017321,1139783.880627242149785],[2497005.073299693409353,1138752.950577267911285],[2497693.158099704887718,1135732.380227337824181],[2499746.22389970626682,1135716.621727345045656],[2500029.117999710142612,1134858.700727369636297],[2499898.102599713020027,1127638.226427535293624],[2496976.464399698190391,1127699.683627527905628],[2496127.626099696848541,1126720.603627555537969],[2495783.200899691320956,1126943.569527545478195],[2495359.457299686037004,1126055.137327573029324],[2498247.741899698507041,1126079.632227560738102],[2497340.146199705079198,1123414.926927621942014],[2499161.916599701158702,1122751.663127642124891],[2501434.143899720162153,1122429.515227652387694],[2503328.572799725923687,1121369.510727670742199],[2513939.581599779427052,1113698.077227861154824],[2514142.562599778641015,1114274.111427839845419],[2514871.950099781621248,1114250.000827834941447],[2514875.4177997848019,1113730.836927850497887],[2514226.089299781713635,1113080.660677872365341],[2514466.248999781906605,1112917.378427873831242],[2514208.498599778395146,1112307.423961214488372]]]}}
]
}
