{
"type": "FeatureCollection",
"name": "CIUDAD DE MÉXICO",
"crs": { "type": "name", "properties": { "name": "urn:ogc:def:crs:EPSG::6372" } },
"features": [
{"type":"Feature","properties":{"CVE_ENT":"09","NOM_ENT":"Ciudad de México","CVE_CAP":0,"NOM_CAP":null,"AREA":148618.321642,"PERIMETER":206.87626769,"COV_":8,"COV_ID":9},"geometry":{"type":"Polygon","coordinates":[[[2817139.494634395465255,789859.732635835185647],[2816646.759501060470939,790325.077835811185651],[2811866.564301037229598,790954.821635799715295],[2810396.491301042959094,789862.709935831022449],[2808717.306501021143049,786788.85843590379227],[2801796.265901003032923,788175.786335862474516],[2800692.145800990983844,791161.186235795146786],[2791085.019800954498351,791719.335335764917545],[2785561.615834265481681,795549.624135675490834],[2784595.639550933148712,797176.625435631140135],[2782913.566100929863751,802031.810335503541864],[2782407.534600912593305,804548.04253545193933],[2781435.758350918535143,805388.149735428392887],[2781514.897300910204649,806239.289435402140953],[2780883.565150917042047,806610.525335393263958],[2780315.182000914588571,806588.887035392224789],[2779874.084150910377502,807173.585235380451195],[2778659.83825090713799,807502.945835368591361],[2779106.786600920371711,810041.697735304594971],[2778938.914900913368911,810442.3861352968961],[2778355.975850906223059,810627.905335293500684],[2777977.116250906139612,811116.17763527831994],[2776217.890100899618119,811504.232935265288688],[2777377.900400897953659,813089.577535224612802],[2777275.09280089661479,813237.14433522708714],[2777592.334700904320925,813338.434335216181353],[2777375.521500903181732,813693.20563521864824],[2777744.772700909990817,813637.679535225499421],[2777075.171500898897648,814196.948235198971815],[2777030.729250893928111,814710.775635177153163],[2779367.263500906527042,817394.375635118805803],[2779920.771200926043093,819017.91813508188352],[2779882.323300916701555,819888.280635051894933],[2780416.088100918103009,820477.327635043184273],[2780956.108700919896364,820467.407835046877153],[2780682.717500923201442,820714.829785039881244],[2780995.613700930029154,821304.233185014221817],[2781227.593850925099105,821326.109235030249692],[2781459.293050930835307,821833.922185010975227],[2782014.495300930459052,821967.148635008838028],[2782449.917500921525061,822667.416334984474815],[2782679.198550938628614,822589.348634993773885],[2782702.648350941948593,821774.657935011899099],[2782938.853700937703252,821537.856635023723356],[2783470.740200935397297,821838.46003500756342],[2783803.641900948714465,822382.983635000768118],[2784315.659500940702856,822549.056834992486984],[2784605.504600940737873,823102.67213497729972],[2786785.901100954506546,824754.315134943230078],[2787143.106900959275663,825729.834134913864546],[2787272.743700949475169,825254.09273492754437],[2787364.697400968521833,825601.375634922413155],[2788162.955100966617465,826178.273934905068018],[2789334.188300963956863,826632.032034890726209],[2789964.242700972594321,827654.541234870208427],[2790850.048200974240899,828258.545234856777824],[2790058.152200968936086,829385.998634829185903],[2791247.056900972500443,830152.755334805580787],[2791031.75460098311305,830369.865634803078137],[2791035.702300969976932,831116.614934788900428],[2791519.21750098047778,831495.116634780075401],[2791886.322900974657387,832801.498734742519446],[2792339.585100991185755,832984.158934739534743],[2792372.538700979668647,833166.609234736650251],[2790868.686800981406122,833562.768434717785567],[2792029.48240098496899,837707.233534622355364],[2792503.434000982437283,838017.479134622612037],[2794861.689600990153849,837217.398534628679045],[2795412.772400995250791,837087.506534642074257],[2795826.894800994545221,837359.686534633045085],[2797499.081001004204154,836759.365234643453732],[2796859.821601008065045,838414.927034604130313],[2795675.321200997568667,838999.111434589372948],[2795961.724601003341377,839415.707234580302611],[2795363.012000997550786,839640.126134577905759],[2795465.330400999635458,839941.011634567053989],[2797239.578300997614861,839409.48953458131291],[2797483.932401011697948,839545.404634574777447],[2797293.88340101391077,839626.312234579701908],[2797573.889701011124998,840027.326034566853195],[2797291.730701009742916,840185.160634566447698],[2798044.900101009290665,841406.000334525946528],[2797008.56230101082474,841872.801534530706704],[2797284.219651008490473,842771.294834502739832],[2797678.856201019138098,843223.370934489998035],[2798205.882101013790816,843304.127934484742582],[2799765.751251020934433,846009.786434419685975],[2800468.509651022497565,846273.750534409889951],[2800802.773151032160968,846749.508634396013804],[2801415.963551031425595,846522.857334403321147],[2801355.341201035305858,845844.959534423309378],[2801777.27910103276372,845338.483834430924617],[2802099.256701031234115,844123.134934463654645],[2802496.937701039947569,843707.46313446899876],[2800209.668101020157337,840482.824634562479332],[2800547.371501026209444,840378.387634561397135],[2800482.347901024390012,839361.261234588804655],[2800731.748101018369198,838850.416234595119022],[2801956.518101021181792,837754.885634630103596],[2802702.738701033871621,837618.047534627025016],[2803732.490101031959057,837964.082934614038095],[2807272.659501058515161,836507.001284656114876],[2806862.506801047362387,835428.327834685798734],[2809221.926601055078208,830319.325334813911468],[2808348.291101049166173,828304.139834861271083],[2808093.949301037471741,825695.558434931677766],[2812172.038001063745469,823854.812134970212355],[2815102.147851079236716,822187.309735017479397],[2814849.874601080082357,821137.85833505121991],[2818770.914951086509973,817365.716185148456134],[2818255.632701094727963,816637.083435158710927],[2818088.965901084709913,815546.351785186794586],[2817834.597501078154892,815440.334185193642043],[2816982.371601082850248,809587.418135335668921],[2818095.056501087266952,809259.295235342229716],[2817863.896951071452349,807297.37473539810162],[2820850.326901076361537,806369.374035422690213],[2820632.322001083754003,805522.74743544170633],[2819731.649901084136218,805787.239635442034341],[2819439.775701083708555,805390.363535441108979],[2818523.925901076756418,805315.368135441327468],[2817920.549901076592505,804908.205735456198454],[2818102.714101084508002,804734.299035461503081],[2817814.632701070513576,804208.268435470177792],[2818102.94505107216537,803734.769335480872542],[2818056.618501081131399,802611.082135515869595],[2819295.092051085550338,801203.929135549813509],[2819711.560501075815409,800315.46503557509277],[2818150.034101082012057,799818.659935591742396],[2819521.34465107973665,798200.669935624464415],[2818293.565201073884964,797550.261435638298281],[2819282.664151078555733,795198.218835704843514],[2819161.78090107999742,793196.109135749284178],[2818506.117051069624722,791148.227435799082741],[2817139.494634395465255,789859.732635835185647]]]}}
]
}
