{
"type": "FeatureCollection",
"name": "DECOZALAPA",
"crs": { "type": "name", "properties": { "name": "urn:ogc:def:crs:EPSG::6372" } },
"features": [
{"type":"Feature","properties":{"CVE_SUBCUE":"RH28Bf","CVE_RH":"RH28","CVE_CUE":"B","CVE_SUBC":"f","AREA_KM2":1628.22,"PERIMETRO":238.51,"TIPO":"ABIERTA","DRENAJE1":"RH28Be","DESCARGA1":1,"DRENAJE2":"-","DESCARGA2":0,"DRENAJE3":"-","DESCARGA3":0,"DRENAJE4":"-","DESCARGA4":0,"TOT_DESC":1,"CUENCA":"R. JAMAPA Y OTROS","RH":"PAPALOAPAN","SUBCUENCA":"R. Decozalapa"},"geometry":{"type":"Polygon","coordinates":[[[3031290.328390886075795,848213.864123158389702],[3030817.022028937470168,846548.198209017864428],[3031668.257766851224005,845523.07937236642465],[3032570.077769344672561,842631.415262886905111],[3033165.583989939186722,842461.640057637821883],[3033765.165827289689332,841239.266003815922886],[3033407.743805460631847,840042.144265140639618],[3032964.914010817185044,839688.944142228108831],[3033060.074238590430468,839061.292887218063697],[3034933.462017816957086,837758.564324725768529],[3035597.135614092927426,837675.363521255436353],[3036175.871494897641242,837104.456596990232356],[3037514.108577419538051,836859.420348444138654],[3039086.249785071238875,836208.216021478991024],[3040282.439470535609871,836261.598051498411223],[3043153.142375129275024,835666.019118005875498],[3044008.124142528045923,835063.312861203914508],[3044152.49665937339887,834106.282193208113313],[3044561.190334256272763,834251.009105961304158],[3046447.958904911763966,833776.76409659802448],[3047469.77262578252703,833783.33213085134048],[3049415.365600317716599,832494.723534748656675],[3050774.708735335618258,832247.339083757600747],[3051729.252611448522657,831203.962557031190954],[3051064.145015444140881,830201.545297827920876],[3051937.413903944194317,829681.71794359665364],[3051731.265588825568557,829182.656175076845102],[3051860.700393504463136,828886.930929164867848],[3053377.091231342870742,827925.784563940018415],[3053648.121152970939875,827368.499988351599313],[3055048.431416703388095,827215.675841870950535],[3056960.89073396101594,827459.464641103520989],[3058931.0958152692765,828703.562422433518805],[3062482.321386585943401,829031.398118292796426],[3063984.932931191287935,829535.618332156562246],[3065589.452885577455163,829046.936103396816179],[3067928.895472416654229,828724.562254814314656],[3068804.416522264480591,828014.978103535599075],[3069451.704640400130302,828026.388657073373906],[3070646.784861956257373,827153.534010804491118],[3072056.870511754415929,827040.907033769530244],[3073029.048497618641704,826288.987938704434782],[3074921.07222774811089,825703.549136401154101],[3074398.676001090556383,825111.340223032631911],[3068942.998172670602798,824712.452968394150957],[3067100.754328821785748,823522.574208875303157],[3063874.59254898969084,823681.283766562584788],[3057818.441614310257137,821416.470905491732992],[3056796.233664271421731,820616.703906616545282],[3055820.066466721706092,820443.991450116969645],[3054356.334170767106116,820653.218362173531204],[3051977.103575402870774,820297.140070017194375],[3045507.840642404742539,821057.259445865754969],[3044935.268172036856413,820897.091437140945345],[3043166.02913266653195,821253.3044421763625],[3041974.386570763308555,822048.724908668431453],[3040715.029030513484031,822179.901271964306943],[3039851.436408362351358,822613.70969552884344],[3038256.370998449623585,822601.169264112366363],[3037086.130854519084096,821968.971520566265099],[3036733.41881240112707,821997.686789787956513],[3036650.989923055283725,822392.632625380530953],[3035340.522144366521388,821949.070711863809265],[3034281.658655929379165,822070.443512972327881],[3033618.494976466521621,821674.533689065603539],[3032416.736432121600956,820161.601319586974569],[3031140.485410494729877,819805.304760366911069],[3029591.265132415574044,819892.875287479255348],[3029193.124681304208934,819470.540959998266771],[3029175.566356188151985,818973.388531494769268],[3027965.714008139912039,816532.249424912966788],[3026852.625023285858333,815587.956177834770642],[3025666.664303894620389,815593.737537732929923],[3025337.207937808707356,814152.420224773464724],[3024413.897030186839402,813066.616171226487495],[3024265.664274515584111,812358.179670037003234],[3024417.65275916736573,811921.882268314249814],[3023839.560537758283317,810812.233503808267415],[3023041.613109393976629,810193.079938098089769],[3022377.273609709460288,810053.516443528351374],[3021665.501208685338497,809106.524277520366013],[3020904.745364546310157,808736.630051954416558],[3020213.772723146248609,808810.003624204196967],[3020129.78014963818714,807995.241674304939806],[3020359.799878585152328,807470.127908197231591],[3020058.898532981052995,807046.883846889599226],[3019891.60389639576897,806051.827226527966559],[3018698.694974796846509,805857.072098070406355],[3018409.329614132177085,805602.331610255641863],[3018124.179941889829934,805709.121847238275222],[3017280.988746880553663,805088.065241549396887],[3015821.948822714388371,805307.052614180138335],[3014503.511435644235462,805035.345290104625747],[3013510.878146255854517,805534.430895932950079],[3011973.972483109682798,805598.974182278150693],[3011601.32167744031176,805427.437626630766317],[3010987.490514143835753,805586.532123539480381],[3010465.157338089309633,805198.58784040005412],[3009390.101839606184512,805058.955564577947371],[3009134.926401973236352,805662.142743262578733],[3008469.352286720648408,805661.620753993629478],[3007989.738386679440737,806349.18839279958047],[3007495.596760195679963,806608.737487950013019],[3006272.671111409086734,805725.044208014151081],[3005389.71507576527074,805520.721099205431528],[3002830.687006162945181,805911.093358020298183],[3001306.573552499525249,805343.139047092758119],[3000803.08664770796895,805449.558091382030398],[3000187.393192223273218,805204.541231929790229],[2998966.573007277213037,806189.206555377575569],[2997841.406001709867269,805997.529487003805116],[2996833.749982732813805,806281.900115922791883],[2996837.811969806440175,806869.893919849651866],[2996430.963128478266299,807692.200116684893146],[2995539.362848331686109,808024.176639823475853],[2995518.830486110877246,808806.055669188965112],[2996536.457950429059565,810003.412234255345538],[2995987.991198106203228,811337.84322691266425],[2996759.14114052709192,812324.082814250723459],[2996944.267275086138397,813586.535641731228679],[2996942.725273086689413,815453.106428351136856],[2996538.785026223398745,816113.389243407640606],[2996501.801208639517426,817058.552525178645737],[2997117.869931179564446,818180.173682485008612],[2996839.371763580478728,819105.728583045303822],[2997095.332205585204065,820587.723078100243583],[2997405.712593381758779,820857.892343390965834],[2997239.082327519543469,821501.846221087151207],[2997544.533728493377566,821731.819078815402463],[2997263.786995579488575,822385.366393086034805],[2997437.49427469400689,823439.574596511432901],[2999861.264806296676397,823972.721469754935242],[2999447.213829403743148,824449.954375285888091],[2999318.786964965984225,825339.345432723639533],[2999504.777354949619621,827211.958349293912761],[3000024.117179436609149,827703.219873482943512],[3000092.193625804502517,828334.905880537698977],[3000698.596384343225509,829471.131599645363167],[3001846.688722028862685,829936.573727469425648],[3001759.381097192876041,832334.506036130827852],[3002296.858128953259438,832463.36731641262304],[3002590.336765998974442,832870.550071270787157],[3003382.026801822241396,833143.062593318871222],[3003966.644722839817405,833673.928719406831078],[3003839.609183640684932,834584.850750243524089],[3004345.701727584470063,835033.807552830199711],[3004493.097896175459027,836005.591092451941222],[3005003.020782032515854,836545.314093448920175],[3005411.802900926675647,836642.86957373295445],[3006637.957040718290955,838151.977523232926615],[3007516.647497728466988,839786.912780641228892],[3007602.072823000140488,841194.324556753155775],[3008155.486815814394504,842167.561818688642234],[3008206.496656769886613,842742.447757505695336],[3007875.450886771548539,844105.26379671622999],[3008537.579344480764121,844686.665388049324974],[3008508.600345608312637,845497.141356426640414],[3010131.416931637562811,846087.358676051371731],[3010302.381697111297399,846649.435394124360755],[3011336.870031645987183,846436.435782077023759],[3011753.395200634375215,846562.985037452308461],[3011635.690082441084087,847795.718152773333713],[3012548.555157279130071,848409.970466632279567],[3013631.478900476358831,848490.575469956267625],[3014492.829803587403148,847808.225695701898076],[3015612.666911715641618,848345.91588435927406],[3016941.982377325184643,848100.817214965238236],[3018791.712860005907714,848963.9903524100082],[3020475.904620141256601,848756.975471013574861],[3021076.522204182110727,849127.033907726057805],[3021332.890625814441592,848988.803679039585404],[3022879.365670319646597,850460.987686811946332],[3023920.441641462501138,851001.54893092950806],[3025288.91450228728354,850857.329532652278431],[3025856.205343034118414,850091.586468710680492],[3026755.144231156911701,849872.506689568981528],[3027247.404569204431027,849494.099198262905702],[3028054.332880003377795,850273.976156591554172],[3028827.578338264022022,850608.389345577685162],[3030059.150606933049858,849932.454234855133109],[3029812.23821035027504,849096.040721815079451],[3031290.328390886075795,848213.864123158389702]]]}}
]
}
