{
"type": "FeatureCollection",
"name": "YUCATAN",
"crs": { "type": "name", "properties": { "name": "urn:ogc:def:crs:EPSG::6372" } },
"features": [
{"type":"Feature","properties":{"CVE_ENT":"31","NOM_ENT":"Yucatán","CVE_CAP":500001,"NOM_CAP":"Mérida","AREA":3924997.5537,"PERIMETER":1664.1945334300001,"COV_":30,"COV_ID":31},"geometry":{"type":"MultiPolygon","coordinates":[[[[3511760.832104444503784,1023282.323631017585285],[3511422.07760445214808,1023226.055831015692092],[3511359.671404446940869,1022923.488931027124636],[3510302.682604436762631,1022133.250031043309718],[3509616.564104434102774,1022451.094031029846519],[3511656.040104447398335,1023904.930730997817591],[3511967.714104455430061,1023749.435331010143273],[3511760.832104444503784,1023282.323631017585285]]],[[[3514105.595904467627406,1025276.638330976245925],[3514016.369404464960098,1025215.289930976461619],[3513997.759604465216398,1025335.549530969350599],[3514105.595904467627406,1025276.638330976245925]]],[[[3514414.39120446331799,1025618.17983096872922],[3514155.546404465567321,1025456.832130965543911],[3514373.609104462899268,1025759.01783095812425],[3514414.39120446331799,1025618.17983096872922]]],[[[3514250.174004469066858,1025894.19813095999416],[3513620.184804462362081,1025088.748430979903787],[3513863.093204463366419,1025028.026730983983725],[3513576.441504459828138,1024665.914930984494276],[3512866.509604453109205,1023965.5155309982365],[3512584.512004458345473,1023990.438530998304486],[3512752.091104452498257,1024576.409130990388803],[3512412.051704456564039,1024387.447930991882458],[3512398.528404451906681,1024585.395530991256237],[3512879.077204462140799,1025148.55743097292725],[3513430.246804452035576,1025285.677630975260399],[3513449.367704466916621,1025916.744330961839296],[3513978.680504464544356,1026372.795230951043777],[3514250.174004469066858,1025894.19813095999416]]],[[[3502532.149204425048083,1031714.297230798285455],[3503531.898204421624541,1031505.81173080811277],[3502681.672304424922913,1030884.811830813763663],[3502674.69310441846028,1030221.489330827607773],[3501525.554204413667321,1029569.282930839457549],[3501360.875204422976822,1029856.43243083555717],[3500924.830804408993572,1029860.105930834193714],[3501157.783204412087798,1030251.461030831327662],[3502104.123204417526722,1030680.016530819004402],[3500729.778104412835091,1030443.488630817388184],[3500780.457204407081008,1030921.9502308111405],[3501211.932004409842193,1031138.913730811211281],[3501737.257404414471239,1031041.862330814008601],[3501869.120204417034984,1031393.250430804328062],[3501993.971904419828206,1031081.320530812139623],[3502532.149204425048083,1031714.297230798285455]]],[[[3754177.355011720210314,1078785.247033000225201],[3752816.262865779921412,1078360.867621975485235],[3751862.192392751574516,1077595.428055690601468],[3750029.3527303612791,1077106.439577855402604],[3749850.485705647617579,1077432.860230252845213],[3749661.206605657469481,1077446.514130253577605],[3754300.037304388359189,1079412.254299075808376],[3754448.33308520866558,1079068.999051589984447],[3754177.355011720210314,1078785.247033000225201]]],[[[3519660.662304684985429,1126695.665828585857525],[3519400.717504689935595,1126578.264228585641831],[3519499.127204691059887,1126794.91192858456634],[3519660.662304684985429,1126695.665828585857525]]],[[[3911448.94250653218478,1128613.711629469646141],[3911609.940806529484689,1128535.165029463358223],[3911456.973006524611264,1128487.526729468256235],[3911448.94250653218478,1128613.711629469646141]]],[[[3916105.262906559277326,1130167.847129444591701],[3916048.763706557452679,1130138.342129444237798],[3916018.317893170751631,1130207.990801240084693],[3916105.262906559277326,1130167.847129444591701]]],[[[3915985.900006551295519,1130311.010229440638795],[3916000.544506556354463,1130216.196929436409846],[3915955.640706552192569,1130256.625029443763196],[3915985.900006551295519,1130311.010229440638795]]],[[[3958683.665606756228954,1132500.636129506165162],[3957724.542933450546116,1132804.10956904059276],[3958234.65760675817728,1132655.046329500852153],[3958683.665606756228954,1132500.636129506165162]]],[[[3923364.11837022472173,1133812.628447583178058],[3922893.562267926521599,1133288.043333733221516],[3922739.9251704136841,1133447.3673451973591],[3922312.53116849437356,1133227.629976569442078],[3923364.11837022472173,1133812.628447583178058]]],[[[3922651.720027852337807,1134228.681279990356416],[3922744.350447604432702,1133662.939209555275738],[3922513.027877268381417,1133555.692271058214828],[3922586.812006474938244,1133813.652539203874767],[3922268.314983802847564,1133505.215777695644647],[3921415.285079596564174,1133366.180449142353609],[3921908.499637656845152,1133918.239462052937597],[3922220.672117314767092,1133883.60187749681063],[3922651.720027852337807,1134228.681279990356416]]],[[[3915985.900006551295519,1130311.010229440638795],[3916011.717006552964449,1130595.890729435021058],[3916888.689406557008624,1130780.497329428559169],[3916654.103406554087996,1131181.188329423544928],[3920073.868506585247815,1133604.986929365200922],[3922188.861506601329893,1134702.04622935783118],[3922501.10732797626406,1134536.512654651422054],[3922203.364683369640261,1134029.931494020391256],[3921613.542048783972859,1133930.056065182201564],[3920811.631435855757445,1132983.989601843524724],[3920487.292010359466076,1132850.057920394232497],[3920406.831224552355707,1133028.927064482588321],[3920107.299007236026227,1132785.28978331759572],[3920011.667912511155009,1132262.169956525787711],[3919783.260194935370237,1132288.050762777915224],[3919893.324452426750213,1131712.367334886454046],[3920366.745357528794557,1131611.542477182112634],[3919941.487036993727088,1131016.909018118865788],[3919599.539766897447407,1131531.58058120100759],[3920142.468756819143891,1131488.126548636006191],[3919073.48901915224269,1131776.831874360097572],[3918989.879036939702928,1131980.317570988088846],[3918435.809267540462315,1131410.467692700447515],[3918490.711740730330348,1131127.782712798099965],[3918091.823453809134662,1131111.075439921114594],[3917666.483277179300785,1130516.297808191739023],[3917843.490582561120391,1131335.426590908784419],[3916928.964973208494484,1130152.209480203455314],[3916575.941762524656951,1130290.706568955909461],[3916622.287149748764932,1130457.524514951277524],[3915985.900006551295519,1130311.010229440638795]]],[[[3958683.665606756228954,1132500.636129506165162],[3967915.097006793599576,1130423.446529581444338],[3973310.878306820057333,1129737.112829608377069],[3973300.360106811393052,1129485.011229622643441],[3973593.856906819157302,1129566.615629628766328],[3973355.263106810860336,1129964.37102960748598],[3985368.709606869611889,1128332.419029678683728],[3989230.591306889429688,1128116.927129699848592],[3994856.690406747162342,1074341.221930982777849],[3976897.65250655496493,1034224.257231884170324],[3956566.839306398294866,1009268.738782422384247],[3953216.940906384028494,1009007.825232428498566],[3953750.003506373614073,1005811.149032501620241],[3949919.650706343352795,1001109.493632604717277],[3948523.506306341849267,1000959.66603259567637],[3948680.954906335100532,999589.028432636871003],[3940354.214106270112097,989368.181832862203009],[3937134.374906255863607,989504.62863284710329],[3930329.22170622786507,989022.894632846699096],[3930299.300906222313643,989372.378582837991416],[3926986.910606207326055,989071.875032837619074],[3926984.801806202158332,986720.541732888668776],[3926339.544806201010942,986748.425332882907242],[3922800.801906179171056,984589.840832933434285],[3918276.049206156283617,984768.034132908913307],[3912419.555806132033467,983442.956032922375016],[3913197.290006131865084,982120.108632963499986],[3912549.184906128793955,982084.999332966748625],[3911998.828706128522754,981284.068232979509048],[3909010.936206109821796,981574.271332972450182],[3901557.253006064333022,975793.519333077594638],[3903403.502206069417298,975718.413333092932589],[3903340.264406055212021,970540.364033213118091],[3896130.033106030896306,970381.053833193029277],[3896069.473406021017581,969388.986233225790784],[3895068.261706016026437,969438.551033213036135],[3895130.255006024613976,968445.303233245387673],[3892152.672206008806825,968499.736233235802501],[3891721.042705998755991,968164.98113324015867],[3891989.115206003189087,967743.14203324506525],[3892041.008305992931128,966574.009933282039128],[3889861.800505984108895,966723.034933274495415],[3884909.963105956092477,962882.604533350327983],[3885021.019005954265594,961472.049133383668959],[3885630.3699059644714,961571.393833382753655],[3885406.568505939096212,956210.836633519385941],[3885091.299205942079425,956272.591133517795242],[3884729.324205933138728,954058.82083356496878],[3883427.652405930683017,954152.615333556896076],[3883405.853405923116952,953803.602333574439399],[3882834.108205928467214,953878.757033561589196],[3882501.583205919712782,953272.118533575208858],[3882328.593905924353749,953297.614033580874093],[3882353.378605924546719,954153.005833556526341],[3880938.771705924067646,954506.606233548955061],[3881351.468505922704935,954156.007733558304608],[3880991.720905916299671,953634.656533563043922],[3880341.38620591443032,953454.873433572473004],[3880290.029805914498866,954170.695533540914766],[3878713.205405907239765,953897.081633546855301],[3878738.802905907854438,953706.218633555225097],[3877296.478305905126035,953713.570033555384725],[3877384.935305903665721,953080.025533568812534],[3876100.424805896356702,953017.737733561894856],[3876136.968205890152603,951587.571833597146906],[3875635.583705892786384,951577.649433602811769],[3875538.807605885434896,951188.214633598807268],[3875712.659405878279358,948976.103233665344305],[3874930.05140587547794,949226.201533658779226],[3875120.360905868932605,946761.467533713555895],[3874352.826805877499282,946835.509233712335117],[3874405.014105868525803,945814.240633737645112],[3873971.610805861651897,945816.142333744792268],[3873940.910305869299918,944738.214633760624565],[3874215.072905862703919,944639.320533766061999],[3874208.467505858279765,943737.988833790994249],[3873917.885805853642523,943662.899033788242377],[3873913.751805864274502,942856.862033810350113],[3873650.034305853303522,942524.14383381837979],[3873724.230105854570866,941309.504833845421672],[3872898.137405848596245,941265.437233847333118],[3872996.130005855113268,941649.613733841455542],[3872538.938805847428739,941914.510333831072785],[3872364.764705850742757,941354.978933839825913],[3872595.432305846363306,941207.062433843384497],[3872399.918905846308917,940531.732533860486001],[3873459.610505845863372,939734.045033878530376],[3872993.522105846554041,938522.549133912543766],[3872330.821005839854479,938647.696633907500654],[3872271.092505840118974,938267.84803391690366],[3867372.002405823208392,937806.294333916972391],[3867641.425105811562389,936088.157633957918733],[3866466.269805805291981,935822.565433961804956],[3866505.960105807054788,935557.647533963783644],[3865433.72720580548048,935744.065333967562765],[3865979.529505798593163,933107.30403401714284],[3865425.106805793941021,932412.140834043850191],[3865037.920105786062777,931226.128334074863233],[3864935.308405781164765,929031.552034122054465],[3863949.089905778877437,929277.727034111623652],[3863121.257705774623901,927758.95033414917998],[3861455.410805770196021,927717.349534149514511],[3861404.290005774237216,930094.260634088190272],[3859954.953405760228634,929632.296534096240066],[3860067.002205768600106,930346.789734077057801],[3858175.750905752182007,930315.934934069868177],[3858076.865705754607916,929494.315834097913466],[3857266.169105749577284,928804.46973411203362],[3857340.164105745963752,928030.725134133477695],[3855775.274105735123158,927870.022834122064523],[3855554.303805732168257,924970.91503419727087],[3853315.126205718144774,925288.575434185913764],[3851403.020805702079087,918997.921134332777001],[3854671.181305715348572,919836.364234320935793],[3854868.238105711527169,919476.079434335231781],[3856971.795905725564808,920162.031034317100421],[3856907.009405724238604,917657.070634386269376],[3853433.871705697849393,917779.136034366791137],[3853149.782005690969527,914341.742134450934827],[3848930.2116056708619,914778.992834430304356],[3849032.426905682310462,915758.948534407303669],[3843821.533105660229921,916311.536634378600866],[3843633.331805629655719,906457.072234613937326],[3846285.696805647108704,906441.774134626495652],[3846516.853205641265959,903139.771734704962],[3842309.061505608726293,902639.253434719052166],[3842239.769405631348491,908854.228634567232803],[3837557.26040561683476,909166.151834543910809],[3837553.491805612109601,907981.658634566003457],[3834123.750605601817369,908044.855634553707205],[3834749.886105594225228,904928.332934639067389],[3827283.75900554144755,897964.87373477825895],[3814253.869105506222695,907692.270834512892179],[3810070.434505512937903,912749.904534377157688],[3807951.901305499020964,912764.40843437705189],[3806917.975105504970998,913880.491134349722415],[3805115.004205496050417,917175.549434251501225],[3806432.453405501320958,917115.480734264361672],[3806475.439705512486398,920505.622934176702984],[3801255.902505497448146,920529.636434159008786],[3799958.002505485899746,922842.324734104447998],[3795126.342205487191677,928629.397833954659291],[3795721.523205482400954,928619.789233949966729],[3793879.705805484671146,930836.868133899639361],[3793512.331455494742841,935903.215433772420511],[3792400.51310549210757,935880.125233770813793],[3792411.929505495354533,937685.991833721171133],[3791486.164905486628413,937701.302833725931123],[3791535.472705511841923,944339.445033550262451],[3774271.760705484077334,962898.328983066021465],[3771925.926905460655689,959799.036633131443523],[3770513.50160545296967,958722.419633149867877],[3769954.789705451112241,957758.620333177852444],[3768762.240705458912998,960837.680033100070432],[3768456.361605455167592,964873.785432997625321],[3763851.506205447949469,965376.474532973021269],[3764034.613205457106233,969967.745032854378223],[3760387.332505437545478,969887.827932858141139],[3760405.734005444217473,973710.657232771627605],[3763978.449205460958183,973963.872132766875438],[3744904.062505430541933,994469.271932227886282],[3744842.753705433569849,993395.846932246698998],[3743321.535805421881378,993236.966532254475169],[3741208.791205405257642,991883.868632278870791],[3740438.805405399762094,990666.257932309992611],[3740544.774805406108499,990468.824232305167243],[3740003.361605390906334,989355.863232333096676],[3739920.096405394840986,988071.070632371585816],[3738986.923105396330357,988104.924432356958278],[3738943.626105385832489,987133.169432390597649],[3735445.957505370955914,986844.761332377791405],[3734685.402705372776836,987471.683432371006347],[3732376.713105361908674,988260.674632347770967],[3732113.861805357970297,988540.396332338103093],[3732052.943705362267792,988156.671332341968082],[3729126.984705351293087,988158.54893233277835],[3726501.120005329605192,987396.006632350385189],[3726438.699105341918766,990058.826832288061269],[3721235.228905316442251,990672.345432261005044],[3721876.155205332674086,996112.761232126620598],[3720964.618405329063535,996118.433432126534171],[3721088.89630533894524,998747.153932063723914],[3720519.838605335913599,998897.308232056326233],[3710137.574805286712945,997601.431632056366652],[3709823.742105293087661,1001451.526031975867227],[3709415.714505285955966,998913.086732033756562],[3704688.264005259145051,998737.172932033077814],[3702830.927305327728391,1030965.603831248474307],[3702633.531163585372269,1031380.19618884450756],[3703916.595860575325787,1033538.276481225620955],[3704752.190142360515893,1033927.081216851365753],[3705026.333380727097392,1034505.195615358301438],[3705139.123098527081311,1035808.65696482162457],[3706006.689369944855571,1037141.508926102891564],[3706090.717564109712839,1039399.611150539596565],[3706933.174736141227186,1040521.018402874935418],[3707247.852777234278619,1041600.265580219449475],[3707286.793188917450607,1042250.144945249892771],[3706982.302965392358601,1042766.759547683643177],[3707118.091854148544371,1043064.903955063200556],[3706546.870789062231779,1043237.055376127827913],[3706566.336948809213936,1043591.308458011830226],[3706141.935097329318523,1043100.063763203448616],[3705527.388385334052145,1043930.810262938612141],[3705485.291416197549552,1042637.794809910818003],[3705150.714255870319903,1042434.637513220892288],[3705022.304234673269093,1041996.639107781928033],[3705128.78314014384523,1039500.772570490371436],[3704684.640323970466852,1038675.121814630343579],[3704897.901698036119342,1038051.675865931203589],[3704364.219279528129846,1036659.150415028096177],[3704469.413457560352981,1035989.776714173262008],[3704256.19314737059176,1035228.269640653394163],[3703724.974089642986655,1034583.502537410357036],[3703623.729422213509679,1033828.996044133091345],[3702545.291291551664472,1032587.379037534003146],[3701970.48390790540725,1031265.63150368409697],[3701970.248970872722566,1030757.250510055455379],[3700741.735455325804651,1030459.842381253838539],[3700270.453154141549021,1030576.761296582524665],[3700486.588282980024815,1030578.888394436682574],[3700652.357811001129448,1031135.325051189516671],[3700477.976663170848042,1030674.620566745637916],[3699971.001705319620669,1030771.338831245782785],[3700295.948705321643502,1031177.391831237124279],[3700201.807505313772708,1031926.088631220161915],[3701146.646105328574777,1034078.589031165931374],[3703156.96230536699295,1043459.02383095107507],[3705484.462705388199538,1048344.982230838388205],[3706866.58990539656952,1050089.189630799926817],[3708789.690705412533134,1051735.289030760759488],[3717490.523105463013053,1058001.594430641736835],[3724228.550305505283177,1063566.896630517207086],[3728449.61060553137213,1066260.735330463154241],[3729373.908805534709245,1067095.468930451897904],[3731644.218705551698804,1067812.057330432347953],[3733695.718705559149384,1068164.771430431865156],[3734010.492505559232086,1068265.806830427842215],[3734004.355905563570559,1068494.744230425683782],[3734147.381705562584102,1067987.709830441279337],[3734354.337105558253825,1067970.049230438424274],[3734504.474905561190099,1068229.028630431974307],[3734181.111305561847985,1068162.220830427249894],[3734020.805805560201406,1068654.520430420991033],[3735458.107005568221211,1068810.971030418528244],[3739769.820005591027439,1070489.856330393347889],[3743464.688705618493259,1073070.952130336081609],[3746054.344305638223886,1075251.148630286799744],[3749401.210105651989579,1077295.157930260524154],[3749750.589005659334362,1077365.633430252783],[3749857.438307079020888,1077081.12918214709498],[3748944.061784406192601,1076561.711323080584407],[3749096.515006184577942,1076218.533981337444857],[3748903.771517015993595,1075447.686572482576594],[3748325.684202069416642,1075238.071146856993437],[3748052.376070570200682,1075270.027609841432422],[3747972.336664924398065,1075561.747798589756712],[3747664.978573689237237,1075463.002288236515597],[3746530.985912121366709,1074021.222245380980894],[3746233.809150084853172,1074157.725144617492333],[3745856.968223433941603,1073934.819041274255142],[3745827.942264443729073,1073565.96484578656964],[3746459.459733274765313,1073256.003006278071553],[3747500.504148650448769,1073513.282375032780692],[3749201.61324496101588,1073254.575110047589988],[3749812.239876227453351,1074034.421138457255438],[3751364.125267210416496,1074827.360094492090866],[3751291.847750115208328,1075204.105827793478966],[3750325.685656211338937,1075120.166442681569606],[3750182.413428233936429,1075410.533620557747781],[3750287.9523592335172,1075659.31362718087621],[3751400.541489583905786,1075648.921759521821514],[3751138.170200913213193,1076084.023044824367389],[3750710.665073793847114,1075984.103954268386588],[3750598.427735313773155,1076160.230653267353773],[3751486.148854026570916,1076832.836004096316174],[3752338.73379905661568,1075707.780061057535931],[3752660.236440606415272,1075798.121448563411832],[3753565.170918352901936,1075447.104104040423408],[3753930.874861953780055,1076153.824387090746313],[3754605.462773565202951,1075841.324414007132873],[3754967.433415330946445,1076153.700716660125181],[3754617.316924101207405,1076586.565298780566081],[3754731.727173808962107,1076804.494188369717449],[3755986.284249069169164,1076696.821701534790918],[3755691.656906441785395,1077072.361684702802449],[3756004.647457064129412,1077429.752703052712604],[3755792.297727969475091,1079098.448706487193704],[3754890.701322502922267,1078992.890384833794087],[3754407.046434917952865,1079340.777520639123395],[3754225.481305681169033,1079742.251430217642337],[3754243.359005676582456,1079750.656230211723596],[3758232.853505702223629,1080746.003130199154839],[3768499.82213049242273,1084165.431672645267099],[3768609.428452578373253,1083865.406362537061796],[3768149.899360653944314,1083625.714342158753425],[3769025.04303981969133,1083067.937730589183047],[3768254.732398722320795,1082363.391425282694399],[3767328.022449735086411,1082902.758534081047401],[3767710.85994301782921,1083282.290310640120879],[3767357.209283443167806,1082968.77440140908584],[3766648.593959372490644,1082877.630552447633818],[3766733.624420787207782,1082751.402767098043114],[3767094.239759901538491,1082774.625275188824162],[3767705.547675038687885,1082558.71308723744005],[3767202.170637130737305,1082668.760542005766183],[3766698.699600600637496,1082267.829230326227844],[3765932.421152236871421,1082504.819174084113911],[3764765.425149891525507,1082018.306215710705146],[3764535.553888919763267,1081506.658294458175078],[3763375.796272497158498,1081663.847138414625078],[3761037.500090094283223,1080978.577693399274722],[3760871.239759786054492,1080845.42636849777773],[3761034.50729572493583,1080513.271552128950134],[3760534.093024258036166,1080759.642491854028776],[3760581.78064707480371,1080481.565342381596565],[3760170.864939046092331,1080500.173416264122352],[3760232.263591953553259,1080205.509360863128677],[3759250.501926166005433,1079699.240233153104782],[3759211.461713030003011,1079461.391900268383324],[3759661.919737038202584,1079216.717879920965061],[3761404.966232281178236,1079196.559945467626676],[3762842.79522566543892,1079960.996836516074836],[3765755.138910704292357,1080328.541858310578391],[3766322.134615508839488,1080645.08709000912495],[3766580.301552028395236,1081296.743542352924123],[3767284.251682058908045,1081261.382150620454922],[3768903.170643007382751,1081895.026849203044549],[3769167.744402257259935,1081559.588973251404241],[3769271.222699780017138,1081981.293521006358787],[3769820.000405800528824,1081605.915249824058264],[3769628.921885531861335,1082052.218148035462946],[3769134.312974582891911,1082048.164276079740375],[3769427.372018069494516,1082374.605908038793132],[3770121.642919006757438,1081997.076732129557058],[3770297.947824716567993,1082178.286914370954037],[3770010.266186865977943,1082436.605198433157057],[3771290.186058505438268,1081895.693726929835975],[3771232.842741364613175,1082121.789599024457857],[3771707.976280552335083,1081965.827133839717135],[3771097.953564654104412,1082236.873646371997893],[3771306.279200513847172,1082495.396344213979319],[3771164.557499072514474,1082734.783121318323538],[3771651.919143391773105,1082879.156763905193657],[3771530.044658999890089,1083182.785888432757929],[3771179.813358763232827,1083180.466590482275933],[3772113.842721233144403,1083760.926905393833295],[3771537.035065623000264,1083845.397921796888113],[3771349.365674689412117,1084114.033936888212338],[3770688.572169809602201,1083979.916026481427252],[3769943.451921246480197,1083685.835245485184714],[3769656.809036809019744,1083073.220521264476702],[3769314.725331023335457,1082921.018568719737232],[3769476.3073302321136,1083295.661646745866165],[3769267.074739204719663,1083383.148993185022846],[3769162.163563788868487,1083112.955893710255623],[3768579.454613952431828,1084475.500451313098893],[3769435.499105765018612,1084377.79183013481088],[3771466.44030577596277,1084841.461230127606541],[3772439.267605776898563,1085446.73923012893647],[3771368.765705785248429,1090999.741329981479794],[3770771.465105786453933,1091189.135229976614937],[3771306.656405789777637,1091324.021029981086031],[3771245.731605788227171,1091658.985229973914102],[3770230.856005787849426,1091560.026029971893877],[3770180.973405787721276,1091945.599429962225258],[3769938.247905785217881,1091775.591329965973273],[3770173.024705789983273,1091958.597029963275418],[3771270.584405785426497,1091679.990929971216246],[3772488.809905780479312,1085471.231630119262263],[3775228.341905793175101,1085971.212730111554265],[3782188.524005828425288,1087852.480230093467981],[3783904.706905841827393,1088633.509330068714917],[3788468.070905867032707,1089828.20513005531393],[3797778.384605909697711,1091945.941930028609931],[3799377.272905921563506,1092494.487430020933971],[3807628.533705958165228,1094116.343629994895309],[3808492.318334574345499,1094508.413386160973459],[3808553.728803319390863,1093876.584447144297883],[3807334.985284158959985,1093735.413810215890408],[3808496.610592964105308,1093732.631339750718325],[3806808.893194093368948,1093560.921279840636998],[3806169.944309211336076,1092785.583744592498988],[3806749.018642296083272,1092699.479654972907156],[3806873.01797950733453,1093028.405992100248113],[3807237.012348480056971,1092584.943738215602934],[3807949.531821696553379,1092987.794932807562873],[3809336.432012286037207,1093147.37301682215184],[3809613.89206890296191,1093559.213704630732536],[3809563.349834647029638,1093970.10668509057723],[3808620.514417368452996,1093888.500710331602022],[3808564.243725029751658,1094267.787778289755806],[3809055.565970194526017,1094391.676381545141339],[3808604.368329980876297,1094372.970733475871384],[3808468.403305971063673,1094646.072629989590496],[3813517.490705990232527,1095247.050729987211525],[3821146.0413060314022,1096944.457229966297746],[3825049.072906051762402,1097509.004629970761016],[3825268.81510605616495,1097820.330429958179593],[3825294.947506051510572,1097465.97422997513786],[3825712.417306053917855,1097518.995429967995733],[3825390.710106055252254,1097542.917229967424646],[3825342.277706052176654,1097858.263629958732054],[3825489.494706048164517,1097682.84442996699363],[3828840.829706067219377,1098118.577429960481822],[3831720.806106091476977,1098971.028029955457896],[3832405.769906090106815,1099449.507029946194962],[3835545.335906103719026,1100290.136429931968451],[3840941.018606138415635,1101383.749029919272289],[3844273.539106154348701,1102469.893229903420433],[3848002.939206170849502,1103123.807629892369732],[3851646.504706184379756,1104378.406229867599905],[3852089.90970619302243,1104430.384329873602837],[3852104.189206187613308,1104238.63952988339588],[3852099.069106192328036,1104655.110729868989438],[3852479.817606189288199,1104385.036029883660376],[3856131.970206216908991,1105035.434929873794317],[3856308.47070621792227,1105330.052129867253825],[3857534.189106217585504,1105795.154329852666706],[3858733.637506229802966,1106655.195629847003147],[3860745.856777179054916,1107066.984116799663752],[3861322.089555315673351,1107256.76394871273078],[3861535.032774763647467,1107519.162880417192355],[3861951.174769129604101,1107362.171006444841623],[3862750.199462803080678,1107425.276590964524075],[3863408.601951853372157,1107683.738845357904211],[3861448.410991131328046,1107575.32361792284064],[3860471.622723434586078,1107108.571624376112595],[3860462.573706238996238,1107611.015429821563885],[3860071.234306241385639,1107240.907329824520275],[3860438.793706247583032,1107880.050629816018045],[3864547.12070625834167,1108942.136529802810401],[3866392.558306274004281,1109664.130729787983],[3870567.275306300725788,1112270.440229733940214],[3870679.898982997518033,1112064.394876881036907],[3870056.5239163832739,1111916.699864232679829],[3869458.533433342352509,1111096.167512828949839],[3869146.509428649675101,1111008.699022946413606],[3869408.329377803020179,1111023.957213495858014],[3869406.870424922555685,1110835.543657564558089],[3868965.685737635940313,1110385.481244828784838],[3868269.568754889070988,1110305.19666726118885],[3867878.645550150424242,1109526.132097430992872],[3867738.346603583544493,1109836.681963053531945],[3867401.540985877625644,1109581.472213055705652],[3867225.662309815175831,1108920.957885045092553],[3867716.625803110189736,1108920.931129937060177],[3868840.569813533686101,1110064.42216484923847],[3869152.157492963597178,1109833.54172205994837],[3869670.754021811299026,1110054.824221623595804],[3869479.92229137243703,1109692.399654378416017],[3869706.43051128461957,1109432.935649238526821],[3870440.531381166540086,1110388.773303153226152],[3870396.079514219425619,1110943.144452596083283],[3869938.856693055015057,1110886.901539494283497],[3870999.927411667536944,1112260.924741088412702],[3872111.861695799045265,1113180.050800299737602],[3873550.836310753133148,1114074.25084291305393],[3874303.740467176306993,1114052.450382441049442],[3874701.814230368472636,1114368.854492174927145],[3876088.139227756299078,1114631.290102394297719],[3875876.510819691233337,1115466.814102344214916],[3876666.476078701205552,1115885.116248871898279],[3876614.02688845526427,1116217.941318006953225],[3877155.001557835377753,1116923.5000643087551],[3876285.633350759278983,1117972.761665496742353],[3875133.91306439274922,1116699.176312756491825],[3874766.612433303147554,1115097.212304537883028],[3874542.914498652331531,1115063.669047023868188],[3874649.542579428292811,1115623.266712616896257],[3874471.659697163850069,1115217.438209227286279],[3873627.108676517847925,1114959.865490563213825],[3873093.266004417557269,1114378.809042271226645],[3872593.987864108756185,1114249.109400787623599],[3872625.390645795501769,1113835.794271110324189],[3872049.977072884328663,1113555.911101737059653],[3872082.306542434729636,1113955.533046226482838],[3871786.89520498784259,1113800.739751695189625],[3870817.820741853676736,1112731.348831036128104],[3870978.643278967123479,1112566.057844195980579],[3870592.414622871670872,1112582.969724888214841],[3871398.759706302545965,1113713.964429701212794],[3875490.213006331585348,1117669.170729622943327],[3876371.252006338909268,1118993.413529603276402],[3876665.083506342023611,1119889.444329579360783],[3878864.143006357830018,1121223.828029554337263],[3883192.349606379400939,1122240.450629537459463],[3885179.546406400855631,1122974.857929524267092],[3887198.522706398740411,1123045.133929528528824],[3893776.005106432363391,1125806.027329482370988],[3897048.081506455782801,1126543.039429482072592],[3899909.60200647264719,1127671.075129455886781],[3901754.278806482441723,1127851.861129452940077],[3902037.679706486873329,1128135.967929446604103],[3902290.023906486108899,1127929.325429455144331],[3903525.197806495707482,1127829.47232946427539],[3903624.163406491279602,1127612.306329463841394],[3903888.244606493972242,1127920.071429463103414],[3904833.768606495112181,1127247.464529478689656],[3905622.668306498788297,1127356.219529481837526],[3906151.608006500639021,1126882.051129486178979],[3906719.582506507169455,1127113.842229492496699],[3907764.984106509014964,1126766.936929494608194],[3907934.17870650626719,1127006.8705294940155],[3908597.148906510323286,1126957.954429499339312],[3908592.709806505590677,1127175.062029495602474],[3910005.765706515870988,1127093.896329496987164],[3909899.526906515937299,1127512.753629485145211],[3910738.909906523302197,1127379.545329494634643],[3911214.231706527993083,1127524.922529487870634],[3911470.090006535872817,1127886.53932948387228],[3911982.516706524416804,1127553.339629495516419],[3912193.227106533944607,1128353.041829473571852],[3912743.71390653308481,1127850.114729485940188],[3913108.602906535379589,1127855.36512948689051],[3914608.982506548985839,1128946.475529470480978],[3915758.357106545940042,1128908.547529465751722],[3915846.463806544430554,1129462.755729461554438],[3917245.054916870314628,1129396.626661064336076],[3917978.978962240740657,1129798.385334226302803],[3918542.574016427621245,1129795.072560297790915],[3919008.040672942996025,1130244.057562489528209],[3919006.424555021338165,1131456.626323040574789],[3919867.63577498588711,1130758.958959551760927],[3920472.61943189566955,1130834.035585078643635],[3921473.441060611046851,1131677.049445174634457],[3921738.306523008272052,1132254.965012279571965],[3922483.619794602505863,1132307.800462533487007],[3922789.855283237993717,1132726.955605944385752],[3923539.923134421929717,1132730.478982315398753],[3924128.417587479576468,1133113.853213379625231],[3923862.642037506215274,1133142.175928275333717],[3924080.533979428932071,1133690.048378815408796],[3924809.414686331525445,1133275.864076200174168],[3925408.722821549512446,1133400.432572977151722],[3926089.361825361847878,1133834.836919963359833],[3927081.251677931286395,1135001.081202289555222],[3928456.934231686871499,1135483.001082469476387],[3930174.234625067561865,1134611.492060566553846],[3930806.836291799321771,1134539.36131617682986],[3931436.926920366007835,1133892.488003288628533],[3933030.193850768264383,1134095.551577633013949],[3933233.202953957021236,1133941.556460643419996],[3933593.236773269250989,1134485.425166926812381],[3935667.73432847019285,1133547.067511344561353],[3936261.516754310112447,1133659.091663566650823],[3936183.126801964826882,1133441.743032473372295],[3936558.952863896265626,1133225.774393328465521],[3937055.413079142570496,1133397.696632517268881],[3937938.881812228821218,1132901.459588307887316],[3938700.99512362992391,1132934.98758882866241],[3938059.511152896564454,1133040.153191010700539],[3938225.352429391816258,1133167.555800223024562],[3937438.692123790737242,1133608.845448299311101],[3939392.800637005828321,1132692.960727001307532],[3943481.6389040783979,1131910.330313690472394],[3945494.436438334174454,1131962.876023462507874],[3946087.789949726313353,1131705.277820257470012],[3946491.280340045690536,1132340.279090253869072],[3946667.559338421095163,1131904.707906612660736],[3948535.190677869599313,1131539.912906216457486],[3949024.670823477208614,1131625.902661493280903],[3950419.027778848540038,1132860.186380067607388],[3951496.214829064905643,1132863.824408179614693],[3952927.282795381732285,1133241.187142067821696],[3953776.59699400048703,1132590.310840360121801],[3955197.412335622124374,1132153.747467189561576],[3957451.666844146326184,1132582.373324446147308],[3958037.254005742259324,1131429.7957138994243],[3958270.886548479087651,1131231.208052607486024],[3958737.544415888376534,1131336.183332057669759],[3958983.607408026698977,1130470.99410167708993],[3960380.610202018171549,1128899.365958434296772],[3963682.616806030273438,1128026.239212178159505],[3964111.242663289420307,1127446.800553296459839],[3964841.494123797863722,1127184.862529427744448],[3965246.307433417066932,1127248.362656415905803],[3965492.370425549335778,1127676.988513669930398],[3967429.124299044255167,1127684.926029560388997],[3968000.625442045740783,1127303.92526753526181],[3968556.25155330915004,1127311.862783420830965],[3969738.941418680362403,1127478.550616807071492],[3970286.630014073569328,1127811.926283553708345],[3972009.070958949625492,1127264.237688163295388],[3973723.574387949891388,1127740.488640679046512],[3974382.718935407232493,1126646.103639405220747],[3976300.951938549056649,1125885.425034710904583],[3976995.484577612951398,1125885.425034712068737],[3977888.455113549251109,1126513.811708149500191],[3978450.695821379777044,1126414.59275971353054],[3979707.469168262556195,1125124.746430022176355],[3981427.264274511951953,1125257.038361272308975],[3982717.110604179091752,1126050.789948787074536],[3983378.570260456763208,1127109.125398778822273],[3983180.132363562472165,1127869.804003470344469],[3982518.672707333229482,1128233.606814431957901],[3979079.082494820002466,1128597.409625344444066],[3977623.871251054108143,1128398.971728470409289],[3976433.243869793601334,1127109.125398778589442],[3974746.521746343933046,1127076.05241598887369],[3974231.575403959490359,1127494.425648547243327],[3974118.135072922334075,1129060.431384715950117],[3972166.829086972400546,1128928.139453471871093],[3968366.62418065359816,1129453.371025900356472],[3967198.936338691972196,1129312.116783925332129],[3966492.497425803449005,1129748.680157035123557],[3965357.432655667420477,1129740.742641192162409],[3964436.381998067256063,1130344.854699939722195],[3961814.985466614365578,1130945.59140504267998],[3960300.242853790521622,1131528.99882185459137],[3958683.665606756228954,1132500.636129506165162]]],[[[3944018.862306700088084,1136887.426229365868494],[3950774.566506730392575,1135142.218829422257841],[3954786.166247674264014,1133733.83326687477529],[3953219.978693261742592,1133545.127854119054973],[3951791.225835753139108,1134053.128870121669024],[3951440.446629128418863,1134411.55061736353673],[3950521.223295757547021,1134688.130140125984326],[3949695.721644763834774,1134608.754981369478628],[3948822.594898491632193,1135085.005933897802606],[3947917.718088738620281,1134878.630521114682779],[3947108.091469498351216,1134259.504282872658223],[3946520.715294741094112,1134624.630013125017285],[3945790.463834241963923,1134196.004155949223787],[3945314.212881736923009,1134735.755235377233475],[3944075.960405226796865,1134799.255362414289266],[3942917.083087482489645,1134418.2546003642492],[3940631.078515456989408,1135085.005933873122558],[3940030.48585250787437,1134752.140616874443367],[3939930.31597590027377,1133784.91603263001889],[3938623.487681167200208,1133447.312206760514528],[3939846.629909693729132,1133896.274370352271944],[3937909.696840423624963,1134417.62174418871291],[3935682.519980113953352,1133836.838462295476347],[3933516.643919007852674,1134538.477741614915431],[3933208.511091508902609,1134162.544468255480751],[3932234.076411574147642,1134386.251409169752151],[3931688.693518806248903,1134178.810319859534502],[3931557.247089445590973,1134474.288159800926223],[3928379.654948360752314,1135676.922506387811154],[3928063.440450196154416,1135435.921966594876722],[3927175.735011950135231,1135476.22930308105424],[3927284.025316212326288,1135312.549034971743822],[3926968.668202904984355,1135054.344054579269141],[3926496.17406313540414,1135113.235447683371603],[3926399.592309947591275,1134911.945571518270299],[3926629.66593783441931,1134868.806900939438492],[3926450.193389182910323,1134667.077956580556929],[3926063.599097744561732,1134776.753418012754992],[3925842.286659432109445,1135145.054735839366913],[3925766.945859182626009,1134903.812986112665385],[3925642.207220389507711,1135058.096823143772781],[3925398.94376476155594,1134748.431816927855834],[3924758.607183224521577,1134656.621877584140748],[3924544.417349369265139,1134234.087498220382258],[3923884.604859486222267,1134082.158867734018713],[3923887.546018668450415,1133815.148292317986488],[3921969.24170659435913,1135094.56642933934927],[3924722.256306607741863,1136430.412029325263575],[3926510.536506621167064,1136834.593429311178625],[3928815.032706628553569,1136771.354429318569601],[3931709.382106646895409,1136300.84062934643589],[3935245.964306653477252,1136204.519429355161265],[3944018.862306700088084,1136887.426229365868494]]],[[[3588552.977205088827759,1161700.764127911999822],[3588388.370805093087256,1161699.607227911241353],[3588536.224005091004074,1161787.89402790996246],[3588552.977205088827759,1161700.764127911999822]]],[[[3588743.618605096358806,1162322.45802788855508],[3589085.499605099204928,1162292.582927897805348],[3588766.890705093275756,1162147.439827902708203],[3588743.618605096358806,1162322.45802788855508]]],[[[3586296.734305086545646,1162284.807527887402102],[3586126.776105088181794,1162217.00112789333798],[3586105.973705085925758,1162359.064727892633528],[3586296.734305086545646,1162284.807527887402102]]],[[[3586485.058005077298731,1162243.511327891610563],[3586537.533805081620812,1162368.904927887022495],[3586599.287005085963756,1162229.872427893569693],[3586485.058005077298731,1162243.511327891610563]]],[[[3588235.739305090159178,1162925.49792788294144],[3588107.555005092173815,1162849.717827877961099],[3588075.683105091564357,1163002.005827880464494],[3588235.739305090159178,1162925.49792788294144]]],[[[3762429.625606026966125,1204053.805327326292172],[3762256.058606027625501,1204269.70572731946595],[3762420.100606023333967,1204379.243527316953987],[3762450.792306027375162,1204312.039227313594893],[3762429.625606026966125,1204053.805327326292172]]],[[[3762095.456206023693085,1204485.606227316427976],[3761531.091806014068425,1203875.722627330338582],[3761292.966306017246097,1203886.305927337147295],[3762095.456206023693085,1204485.606227316427976]]],[[[3761897.547506025061011,1205313.082227300852537],[3761733.505506029818207,1205244.290427302476019],[3761786.422206028364599,1205328.957227298058569],[3761897.547506025061011,1205313.082227300852537]]],[[[3761107.497406021691859,1205281.02862730063498],[3761338.746306016109884,1205054.241027301177382],[3761147.185006022453308,1204861.001727307215333],[3760657.704806018620729,1204956.913427304942161],[3760548.564006024040282,1205188.424227294279262],[3761107.497406021691859,1205281.02862730063498]]],[[[3760636.538106020539999,1205399.650427291868255],[3760362.431906018406153,1205240.77262729825452],[3760529.381706022657454,1205562.369427284691483],[3760636.538106020539999,1205399.650427291868255]]],[[[3760653.961006026249379,1206249.569027272984385],[3760581.200406022835523,1205984.985127283958718],[3760508.43990602530539,1206269.412827274529263],[3760653.961006026249379,1206249.569027272984385]]],[[[3761070.68060602620244,1206276.027427274966612],[3760902.669806020800024,1206150.350127272540703],[3760921.190706023015082,1206334.235827272525057],[3761070.68060602620244,1206276.027427274966612]]],[[[3755162.155306009575725,1210051.398927173111588],[3755517.226806006859988,1209660.608527183067054],[3755117.176006005145609,1209612.189727185526863],[3755162.155306009575725,1210051.398927173111588]]],[[[3756023.747306008823216,1210140.489727168343961],[3755940.403406007215381,1210041.270727170165628],[3755956.278406005352736,1210120.64592716912739],[3756023.747306008823216,1210140.489727168343961]]],[[[3756011.302406013011932,1210439.321727161528543],[3756401.563606009818614,1210373.175827171420678],[3755984.84400600194931,1210346.717427169904113],[3756011.302406013011932,1210439.321727161528543]]],[[[3755216.628706009592861,1210618.826827163109556],[3755112.911806002724916,1210548.976727154338732],[3755112.911806003190577,1210599.776827158406377],[3755216.628706009592861,1210618.826827163109556]]],[[[3754441.693406006321311,1210934.138927141437307],[3755307.411806005518883,1210114.987227175617591],[3755142.311506000347435,1210083.237227171193808],[3754869.260905997827649,1209606.986227182205766],[3754626.902105998247862,1209912.845227169338614],[3754965.569505999796093,1210145.678927171044052],[3754632.193806008435786,1210166.845727175008506],[3754812.110806002281606,1210320.304327165940776],[3754531.651906006038189,1210336.179327159188688],[3754626.902105998713523,1210569.013127160025761],[3754108.317705997265875,1210637.804927161894739],[3754441.693406006321311,1210934.138927141437307]]],[[[3754356.638506000395864,1210993.278427152894437],[3754012.679405998438597,1210821.298927149968222],[3753986.221006004139781,1210450.881527163786814],[3753536.428505991585553,1210636.090227151289582],[3753827.470706003718078,1210741.923727150307968],[3753748.095605996437371,1211099.11192714725621],[3754039.137806000653654,1210980.049227148061618],[3754224.346506004221737,1211257.862227144883946],[3754356.638506000395864,1210993.278427152894437]]],[[[3754756.46430600527674,1211130.965327147394419],[3754597.714006001595408,1211181.765427144477144],[3754543.738905998878181,1211304.003127142088488],[3754735.826806008815765,1211380.203327146591619],[3754756.46430600527674,1211130.965327147394419]]],[[[3754930.72460600733757,1211652.732627136167139],[3755339.506606010720134,1211636.857627132674679],[3755145.037506008986384,1211271.731827145675197],[3754930.72460600733757,1211652.732627136167139]]],[[[3755520.482006011530757,1211728.93272713269107],[3755279.18150601349771,1211792.432927131420001],[3755298.231506014242768,1211963.883227131795138],[3755545.882006006315351,1211944.833227131282911],[3755520.482006011530757,1211728.93272713269107]]],[[[3753560.601206002756953,1214790.710727056954056],[3753090.964805999770761,1214691.491727053653449],[3753133.298306005541235,1215117.471727055264637],[3753560.601206002756953,1214790.710727056954056]]],[[[3752737.2547060046345,1215031.296727050794289],[3752782.364506001584232,1213512.116827091667801],[3753371.46020599687472,1213093.822027092101052],[3753925.763406006619334,1212206.308527116896585],[3754012.679405999369919,1211249.924727140460163],[3753095.06750600039959,1211460.416427132440731],[3753359.553906001150608,1211894.099527129670605],[3753174.795406006276608,1212714.984827109379694],[3752459.297106001526117,1213101.043627098435536],[3752387.859505995176733,1213654.023927082773298],[3751630.861005998216569,1214359.333627068903297],[3751419.193905995227396,1214962.584827055456117],[3751877.750305997207761,1215925.562827036483213],[3752737.2547060046345,1215031.296727050794289]]],[[[3752634.557706006336957,1216007.796427034307271],[3752323.671606005169451,1215994.567227028077468],[3752257.525706007145345,1216199.619727030163631],[3752568.411706012208015,1216272.380327024962753],[3752634.557706006336957,1216007.796427034307271]]],[[[3752158.306706003379077,1216609.724727018736303],[3751940.025006008800119,1216940.454627010738477],[3752369.973806009627879,1217105.819527001352981],[3752422.890606011264026,1216768.475027010310441],[3752158.306706003379077,1216609.724727018736303]]],[[[3754129.500206024385989,1217844.29842699598521],[3754441.729006023146212,1217824.423526993021369],[3754517.796806016936898,1217331.636027006199583],[3754592.674106021411717,1217869.879026992246509],[3754882.393406016752124,1217945.285426992690191],[3754574.001106021925807,1216860.046427022665739],[3754298.833906008861959,1216870.629827014170587],[3754206.910806020721793,1217328.32872700272128],[3753811.999606009572744,1217325.714027004316449],[3753714.123306014575064,1217986.481126982253045],[3754013.083306022919714,1218130.049026986118406],[3754129.500206024385989,1217844.29842699598521]]],[[[3751441.195006002672017,1218250.574426973471418],[3751123.694405998568982,1218277.032826976617798],[3751216.298705997876823,1218687.137826963327825],[3751414.889606008771807,1218626.774026964325458],[3751441.195006002672017,1218250.574426973471418]]],[[[3750146.810306001454592,1217615.692526991246268],[3750937.254606003407389,1217503.244326989166439],[3751666.976905996911228,1216665.175027005374432],[3751889.22730600554496,1216093.673827028134838],[3751604.699805999174714,1215437.670127039775252],[3751265.669306003954262,1216329.704727024771273],[3750664.253006001468748,1216951.684027007315308],[3749422.031705991365016,1217336.918126986594871],[3748726.167705994099379,1218010.276026973966509],[3749728.41990599501878,1218829.171126963803545],[3750296.035606000572443,1218132.292526972014457],[3750146.810306001454592,1217615.692526991246268]]],[[[3753675.320006017573178,1218753.992826966801658],[3753398.16840601619333,1218645.513526967959478],[3753302.918206014670432,1218978.889126957627013],[3753576.101006023120135,1219131.024926953250542],[3753675.320006017573178,1218753.992826966801658]]],[[[3755718.346106031909585,1218747.159726974088699],[3755271.860806025564671,1218740.545126973185688],[3755230.169106024317443,1219146.051026959903538],[3755537.08640603069216,1219241.301226967014372],[3755718.346106031909585,1218747.159726974088699]]],[[[3754023.666706020012498,1219950.386026947293431],[3754097.750206030905247,1219241.301226961193606],[3753589.749106016475707,1219770.468926954083145],[3754023.666706020012498,1219950.386026947293431]]],[[[3752096.085006017237902,1219911.933126947609708],[3751783.876106014940888,1219732.016126946313307],[3751688.625906012952328,1220181.808626938145608],[3752096.085006017237902,1219911.933126947609708]]],[[[3752820.162906014826149,1219748.993526944192126],[3753058.288406020961702,1219596.857826949097216],[3753005.371606017462909,1219292.586426956113428],[3752608.495806018821895,1219405.034526951378211],[3752694.485506016761065,1218809.720826962497085],[3752502.662206010892987,1218445.918026975821704],[3752185.161606014706194,1218379.772026974940673],[3752099.171906008385122,1218763.418626971077174],[3752740.787706012837589,1220291.390526926144958],[3753045.059206012170762,1220040.035826936597005],[3752820.162906014826149,1219748.993526944192126]]],[[[3752160.996306011453271,1220368.428526915144175],[3751930.828106013126671,1220349.215026936493814],[3751824.974806014448404,1220815.575226916698739],[3751936.10000601503998,1220855.26282691792585],[3752160.996306011453271,1220368.428526915144175]]],[[[3753186.61150602158159,1221017.673226915067062],[3752981.559006019029766,1221090.433726910268888],[3753080.778006015345454,1221295.486226909095421],[3753193.226106023881584,1221222.725726914592087],[3753186.61150602158159,1221017.673226915067062]]],[[[3752747.76500601740554,1221319.602426904486492],[3753379.459006017073989,1220558.923826927552],[3753415.839306013192981,1220201.735626930138096],[3753075.187606020830572,1220264.574226927943528],[3752747.76500601740554,1221319.602426904486492]]],[[[3752640.245906018652022,1222047.565826896578074],[3753086.731106018647552,1221763.138226903043687],[3752732.850206016562879,1221617.617126903729513],[3752640.245906018652022,1222047.565826896578074]]],[[[3752815.414706024806947,1222289.377926882822067],[3753386.915806016884744,1222098.877526897238567],[3753236.103006020653993,1221825.033226897707209],[3752815.414706024806947,1222289.377926882822067]]],[[[3750346.303706016391516,1224503.645126823568717],[3750660.658006019890308,1224398.962526836665347],[3750694.431106018833816,1224321.458026831038296],[3750369.780906014144421,1224308.326926830923185],[3750346.303706016391516,1224503.645126823568717]]],[[[3750259.660306015983224,1224475.608126838225871],[3749045.822506007738411,1224145.419326839735731],[3748845.949006008915603,1224340.308126831194386],[3749151.486806006636471,1224497.921326823299751],[3750259.660306015983224,1224475.608126838225871]]],[[[3748725.687806002795696,1224030.560226831817999],[3748572.305506007745862,1224317.11692683887668],[3748581.728806004859507,1224763.720026819733903],[3748841.328606009483337,1224186.587026832858101],[3748725.687806002795696,1224030.560226831817999]]],[[[3749064.46560600399971,1224612.400026821065694],[3748870.110206017270684,1224822.374726818641648],[3748934.245406011119485,1225025.166926816338673],[3749059.370106004178524,1224831.211726822657511],[3749064.46560600399971,1224612.400026821065694]]],[[[3749239.37420601490885,1224840.53662680927664],[3749054.636606014333665,1225255.958726802375168],[3749077.105606006458402,1225469.813626812770963],[3749189.226106015499681,1225428.222926807589829],[3749239.37420601490885,1224840.53662680927664]]],[[[3750251.573506024666131,1226506.958426781231537],[3750061.073106019292027,1226038.645026797428727],[3749949.947906008921564,1226248.989226785721257],[3750251.573506024666131,1226506.958426781231537]]],[[[3750870.699806021526456,1226661.740026787854731],[3750723.855706024449319,1225907.676026797387749],[3750603.708306019194424,1225892.313026799587533],[3750461.917706022039056,1226534.739726781146601],[3750870.699806021526456,1226661.740026787854731]]],[[[3751149.547006017528474,1224894.0768268245738],[3750868.510606019757688,1225342.294026816030964],[3751219.010206029750407,1226738.329426777316257],[3751456.16230602376163,1226345.400726784020662],[3751149.547006017528474,1224894.0768268245738]]],[[[3759841.80460605956614,1224713.540126843843609],[3765682.601206075865775,1218362.204527009744197],[3766841.478506074752659,1215846.011927066836506],[3767158.979106065817177,1213869.570527115371078],[3767284.31780606508255,1212063.880927163176239],[3767105.723706067539752,1210899.711927186930552],[3765541.491506041958928,1206149.371227286988869],[3764059.160406039096415,1204198.892027333611622],[3763449.7260060319677,1203959.725527329836041],[3763169.267106026411057,1204330.142927315551788],[3763121.642006024718285,1203980.892227333970368],[3762724.766306021250784,1203732.183327334932983],[3762561.388406029902399,1204355.430927326669917],[3763134.575906030833721,1205025.66242730920203],[3763545.739206032827497,1205007.406127305235714],[3763474.301606033928692,1205229.656627302756533],[3763946.583806036971509,1205777.345227292506024],[3763843.396106036379933,1206344.877627277746797],[3763256.019906032830477,1206563.159227273892611],[3763394.926406032871455,1206118.658427280141041],[3762986.144406036473811,1206150.408427276881412],[3763343.332606034353375,1206011.501927281729877],[3763152.832206028979272,1205765.438927290495485],[3763307.613706037402153,1205487.625827299663797],[3762778.282406028360128,1205416.314027302199975],[3763009.956906031817198,1204888.343427310464904],[3762561.323606029618531,1204868.625527306459844],[3762381.406606026925147,1204490.270527314161882],[3762093.010206023231149,1204625.208327315282077],[3762185.679306025151163,1205742.104927294654772],[3762406.606806026771665,1205146.394327297573909],[3762671.814906029030681,1205116.865827296394855],[3762488.114806022495031,1205402.766127293696627],[3762749.981806026306003,1205895.616027289768681],[3762646.865206031594425,1206450.518227280117571],[3762408.739706025458872,1206524.601727272383869],[3762556.906606024131179,1206085.392527284100652],[3762228.822706030681729,1205815.516927283257246],[3762160.422206027433276,1206295.135827277554199],[3761344.51230602292344,1206554.281727271387354],[3761363.562306022737175,1206179.630927277961746],[3761260.837106029503047,1206566.334327269811183],[3760913.570806019939482,1206470.422627269523218],[3760463.778206018730998,1207035.970627256203443],[3759670.026606020517647,1207026.048727253219113],[3760525.77900601644069,1205886.089127279119566],[3760083.031306013464928,1205014.553427298786119],[3759235.350506015121937,1205199.964827296091244],[3759140.100306013599038,1205358.715127292089164],[3759432.700406017713249,1205426.049527291906998],[3759712.565506014972925,1206066.467927271267399],[3759141.06430601933971,1206661.781627266202122],[3758752.126106015406549,1206749.09432725654915],[3758688.625906011089683,1207201.532727252924815],[3758037.749606009572744,1208082.597027220064774],[3756895.154006009921432,1208785.803327206755057],[3755092.130506004206836,1209214.771527189994231],[3755144.671606002841145,1209485.800627181772143],[3755720.582406006753445,1209698.43792718835175],[3756734.467806012369692,1209444.437327188206837],[3757128.36790600605309,1209056.550327194621786],[3759239.747106028720737,1209024.800327200908214],[3759223.872106021270156,1209274.832027199212462],[3758809.343806017190218,1209294.716527202865109],[3758637.364306014962494,1209572.529527187114581],[3759047.469306023791432,1209817.269627178087831],[3758928.406506019178778,1210022.322127177845687],[3758286.790706028230488,1209843.728027185890824],[3758154.498706022277474,1210108.311827181838453],[3758435.39860601676628,1210220.319027176359668],[3757867.284106026403606,1210723.557527167024091],[3757479.933406019583344,1210545.757227164926007],[3757117.982606019824743,1210825.157727163285017],[3756133.730706011876464,1210641.007427163887769],[3756019.430406005121768,1210958.508027149830014],[3755615.014006006531417,1210780.125527158612385],[3755019.700306012295187,1210952.105127155315131],[3755648.087006009183824,1211223.303527147043496],[3755992.797906011343002,1211825.520627134013921],[3755722.92230601189658,1211878.437427134020254],[3755677.06110600894317,1212527.770327113103122],[3755979.568706012330949,1212348.735227124067023],[3756365.861106018535793,1212565.694027119316161],[3756540.486506015993655,1212999.611527112778276],[3756302.361006019636989,1213052.528327103704214],[3756133.027306013740599,1212703.277627115370706],[3755476.859306008554995,1212787.944427110953256],[3755492.734406013041735,1213105.445127102779225],[3755854.685106008313596,1212951.986427101539448],[3755937.147106017917395,1213279.40902710123919],[3755474.125306016765535,1213663.055627088760957],[3755533.656706018839031,1213266.179827099665999],[3754769.670806008391082,1213312.481927093118429],[3754763.056206008885056,1213517.534427090547979],[3755169.853906012140214,1213454.695827094605193],[3755677.524206009693444,1214347.666327078361064],[3755932.186106014531106,1214208.759827078087255],[3755851.091206016950309,1213811.487127089174464],[3756261.985606024973094,1214177.5761270779185],[3756033.385106015950441,1214495.076727068284526],[3755785.734606021549553,1214437.926627076929435],[3755798.434706016909331,1214933.227627067361027],[3755417.433906015940011,1214799.877427066443488],[3755423.783906017430127,1214234.726227071369067],[3755087.233206008095294,1214025.175827082246542],[3754460.566406008787453,1214455.65382707840763],[3754530.019606010988355,1214660.706227073911577],[3754907.051606019027531,1214657.398927069967613],[3754666.28030601516366,1215289.092927051708102],[3755051.249806012958288,1215351.104827050119638],[3755170.312606021761894,1215926.574727039318532],[3754614.686506011523306,1216236.799227020703256],[3754552.509306016843766,1215144.72942705405876],[3754134.466806007549167,1214991.270727059338242],[3753991.591506005264819,1215176.479427048237994],[3754287.925406009890139,1215568.063527043676004],[3754204.677606008481234,1216337.730527023551986],[3755085.741906020324677,1216710.793727017473429],[3755133.477206027135253,1217071.179027012083679],[3755408.644406023435295,1217068.533227016683668],[3755498.602906024549156,1217393.971327],[3755768.478506024926901,1217304.012827000580728],[3756078.041606022976339,1217722.055326994741336],[3756257.95860602427274,1217544.784127003047615],[3756489.814406030811369,1217804.40352699928917],[3756903.888106027618051,1217558.340527000371367],[3756578.449906028807163,1217944.633026989642531],[3756199.221006031148136,1217840.059726998209953],[3755970.620606027543545,1218087.710226982831955],[3755996.020606031175703,1218868.761826970614493],[3755437.219506022520363,1219853.013726952951401],[3755792.82020604191348,1220481.66502693737857],[3755475.007306032814085,1221457.696226910455152],[3754832.068506027571857,1221433.883626906666905],[3754751.370406025554985,1221673.332026901189238],[3754423.286406026221812,1221525.165026911068708],[3754599.234706029761583,1220813.434426926542073],[3754923.349906026385725,1221097.862126918043941],[3755154.860806031152606,1220925.882626927224919],[3754784.443406032398343,1220304.110526933567598],[3754605.849306020885706,1220469.475426928838715],[3754371.692606025375426,1220278.975026937900111],[3753138.607606020756066,1221598.304826906882226],[3753772.410106022842228,1221970.988826898857951],[3752955.275706024840474,1222433.466126874322072],[3752457.858106018975377,1223100.217526865424588],[3752261.607406022958457,1222464.551926881540567],[3752002.773806023411453,1222883.258726864587516],[3751983.79440601170063,1222662.98982687224634],[3751515.939506014809012,1222856.800326868193224],[3751743.481706022284925,1222444.04952688049525],[3752457.858106017112732,1222242.965826893690974],[3752304.399406024254858,1221142.296926912618801],[3752664.233506007120013,1220322.086926931980997],[3752087.440706015564501,1220824.796326924581081],[3751902.232006013393402,1221338.088926911354065],[3751579.43970601586625,1221216.380426908144727],[3751268.679306017234921,1221979.148426891770214],[3751394.391206006519496,1220339.821426928509027],[3750949.890306005254388,1219772.289026941405609],[3750084.020606007892638,1219791.833126941695809],[3750052.270505993627012,1219023.481526958756149],[3749028.019305989146233,1218525.106826963601634],[3748209.708505988121033,1217803.749926980352029],[3747761.238805985078216,1218125.219326968537644],[3748241.458505986258388,1218101.406826964346692],[3747888.239105991087854,1218248.250826970906928],[3747514.234305989928544,1218970.829826955450699],[3747684.943905984982848,1219971.846626924583688],[3747371.359005989506841,1220463.082826909143478],[3747469.559106001164764,1221140.07482689851895],[3747697.220606000162661,1221579.722726894542575],[3748006.783705987967551,1221611.472726893611252],[3748538.597306003328413,1222992.600526858353987],[3748443.347106001805514,1223254.538526856806129],[3749229.16110600810498,1224103.852726835757494],[3749991.162706009112298,1224365.790826835436746],[3750276.913206010591239,1224334.040726830484346],[3750237.225706013850868,1224103.852726841112599],[3750546.788806018419564,1224167.352926837978885],[3751788.936206020414829,1225150.464026812463999],[3752191.273006030358374,1226273.654326793272048],[3751386.798406023532152,1227070.896226776530966],[3751924.132606027647853,1227157.633526772493497],[3753273.51030603563413,1226654.924226784147322],[3756964.455106049776077,1226019.922926810802892],[3759841.80460605956614,1224713.540126843843609]]]]}}
]
}
